FLOCK 4H-33             
1 66736U 25276BY  26193.73061831  .00003550  00000+0  16242-3 0  9990
2 66736  97.4219 267.2552 0002550 168.1808 191.9488 15.21170690 34329
FLOCK 4H-34             
1 66737U 25276BZ  26193.71701406  .00004060  00000+0  18718-3 0  9995
2 66737  97.4236 267.1656 0002314 176.8602 183.2648 15.20818789 33563
FLOCK 4H-35             
1 66738U 25276CA  26193.75873903  .00004548  00000+0  20860-3 0  9994
2 66738  97.4196 267.1453 0002307 156.8141 203.3199 15.20936393 33615
FLOCK 4H-36             
1 66739U 25276CB  26193.73110409  .00003751  00000+0  17377-3 0  9992
2 66739  97.4242 267.1727 0002132 191.1632 168.9557 15.20698484 34313
