{"fetched_at":"2026-07-13T07:47:56.614Z","source":"https://celestrak.org/NORAD/elements/gp.php?GROUP=planet&FORMAT=JSON","constellation":"superdove","records":[{"OBJECT_NAME":"FLOCK 4H-33","OBJECT_ID":"2025-276BY","EPOCH":"2026-07-12T17:32:05.421984","CLASSIFICATION_TYPE":"U","MEAN_MOTION":15.2117069,"ECCENTRICITY":0.000255,"INCLINATION":97.4219,"RA_OF_ASC_NODE":267.2552,"ARG_OF_PERICENTER":168.1808,"MEAN_ANOMALY":191.9488,"EPHEMERIS_TYPE":0,"NORAD_CAT_ID":66736,"ELEMENT_SET_NO":999,"REV_AT_EPOCH":3432,"BSTAR":0.00016242,"MEAN_MOTION_DOT":0.0000355,"MEAN_MOTION_DDOT":0},{"OBJECT_NAME":"FLOCK 4H-34","OBJECT_ID":"2025-276BZ","EPOCH":"2026-07-12T17:12:30.014784","CLASSIFICATION_TYPE":"U","MEAN_MOTION":15.20818789,"ECCENTRICITY":0.0002314,"INCLINATION":97.4236,"RA_OF_ASC_NODE":267.1656,"ARG_OF_PERICENTER":176.8602,"MEAN_ANOMALY":183.2648,"EPHEMERIS_TYPE":0,"NORAD_CAT_ID":66737,"ELEMENT_SET_NO":999,"REV_AT_EPOCH":3356,"BSTAR":0.00018718,"MEAN_MOTION_DOT":0.0000406,"MEAN_MOTION_DDOT":0},{"OBJECT_NAME":"FLOCK 4H-35","OBJECT_ID":"2025-276CA","EPOCH":"2026-07-12T18:12:35.052192","CLASSIFICATION_TYPE":"U","MEAN_MOTION":15.20936393,"ECCENTRICITY":0.0002307,"INCLINATION":97.4196,"RA_OF_ASC_NODE":267.1453,"ARG_OF_PERICENTER":156.8141,"MEAN_ANOMALY":203.3199,"EPHEMERIS_TYPE":0,"NORAD_CAT_ID":66738,"ELEMENT_SET_NO":999,"REV_AT_EPOCH":3361,"BSTAR":0.0002086,"MEAN_MOTION_DOT":0.00004548,"MEAN_MOTION_DDOT":0},{"OBJECT_NAME":"FLOCK 4H-36","OBJECT_ID":"2025-276CB","EPOCH":"2026-07-12T17:32:47.393376","CLASSIFICATION_TYPE":"U","MEAN_MOTION":15.20698484,"ECCENTRICITY":0.0002132,"INCLINATION":97.4242,"RA_OF_ASC_NODE":267.1727,"ARG_OF_PERICENTER":191.1632,"MEAN_ANOMALY":168.9557,"EPHEMERIS_TYPE":0,"NORAD_CAT_ID":66739,"ELEMENT_SET_NO":999,"REV_AT_EPOCH":3431,"BSTAR":0.00017377,"MEAN_MOTION_DOT":0.00003751,"MEAN_MOTION_DDOT":0}]}
